{"type": "FeatureCollection", "features": [ {"type": "Feature", "properties": {"norad_id": 66868, "name": "STARLINK-36108", "group": "last-30-days", "lat": 17.878031320951962, "lon": 123.65940845266977, "alt_km": 320.249419554234, "timestamp": "2025-12-15T19:00:44.078863+00:00", "meta": {"OBJECT_NAME": "STARLINK-36108", "OBJECT_ID": "2025-281W", "EPOCH": "2025-12-14T20:00:06.000192", "MEAN_MOTION": 15.85573146, "ECCENTRICITY": 0.00016387, "INCLINATION": 43.0008, "RA_OF_ASC_NODE": 109.3029, "ARG_OF_PERICENTER": 276.3622, "MEAN_ANOMALY": 36.0669, "EPHEMERIS_TYPE": 0, "CLASSIFICATION_TYPE": "U", "NORAD_CAT_ID": 66868, "ELEMENT_SET_NO": 999, "REV_AT_EPOCH": 157, "BSTAR": -0.006483244, "MEAN_MOTION_DOT": -0.01409938, "MEAN_MOTION_DDOT": 0}, "tle": {"line1": "1 66868U 25281W   25348.83340278 -.01409938  00000+0 -64832-2 0  9999", "line2": "2 66868  43.0008 109.3029 0001638 276.3622  36.0669 15.85573146  1579"}}, "geometry": {"type": "Point", "coordinates": [123.65940845266977, 17.878031320951962]}}, {"type": "Feature", "properties": {"norad_id": 66869, "name": "STARLINK-36092", "group": "last-30-days", "lat": 19.515065695722647, "lon": 125.75494775659624, "alt_km": 320.1168357509796, "timestamp": "2025-12-15T19:00:44.078875+00:00", "meta": {"OBJECT_NAME": "STARLINK-36092", "OBJECT_ID": "2025-281X", "EPOCH": "2025-12-14T20:00:06.000192", "MEAN_MOTION": 15.85548372, "ECCENTRICITY": 0.0001779, "INCLINATION": 43.0007, "RA_OF_ASC_NODE": 109.2962, "ARG_OF_PERICENTER": 279.2094, "MEAN_ANOMALY": 35.9184, "EPHEMERIS_TYPE": 0, "CLASSIFICATION_TYPE": "U", "NORAD_CAT_ID": 66869, "ELEMENT_SET_NO": 999, "REV_AT_EPOCH": 176, "BSTAR": -0.0065430219, "MEAN_MOTION_DOT": -0.01419818, "MEAN_MOTION_DDOT": 0}, "tle": {"line1": "1 66869U 25281X   25348.83340278 -.01419818  00000+0 -65430-2 0  9993", "line2": "2 66869  43.0007 109.2962 0001779 279.2094  35.9184 15.85548372  1769"}}, "geometry": {"type": "Point", "coordinates": [125.75494775659624, 19.515065695722647]}}, {"type": "Feature", "properties": {"norad_id": 66870, "name": "STARLINK-36114", "group": "last-30-days", "lat": 21.457062280861926, "lon": 128.3403193728263, "alt_km": 320.2715455906882, "timestamp": "2025-12-15T19:00:44.078885+00:00", "meta": {"OBJECT_NAME": "STARLINK-36114", "OBJECT_ID": "2025-281Y", "EPOCH": "2025-12-14T20:00:06.000192", "MEAN_MOTION": 15.85484307, "ECCENTRICITY": 0.00017013, "INCLINATION": 43.0006, "RA_OF_ASC_NODE": 109.2876, "ARG_OF_PERICENTER": 274.6068, "MEAN_ANOMALY": 43.8817, "EPHEMERIS_TYPE": 0, "CLASSIFICATION_TYPE": "U", "NORAD_CAT_ID": 66870, "ELEMENT_SET_NO": 999, "REV_AT_EPOCH": 163, "BSTAR": -0.0066028207, "MEAN_MOTION_DOT": -0.01455922, "MEAN_MOTION_DDOT": 0}, "tle": {"line1": "1 66870U 25281Y   25348.83340278 -.01455922  00000+0 -66028-2 0  9995", "line2": "2 66870  43.0006 109.2876 0001701 274.6068  43.8817 15.85484307  1633"}}, "geometry": {"type": "Point", "coordinates": [128.3403193728263, 21.457062280861926]}}, {"type": "Feature", "properties": {"norad_id": 66871, "name": "STARLINK-36095", "group": "last-30-days", "lat": 23.372114155109628, "lon": 131.01489945138735, "alt_km": 320.1319672868258, "timestamp": "2025-12-15T19:00:44.078897+00:00", "meta": {"OBJECT_NAME": "STARLINK-36095", "OBJECT_ID": "2025-281Z", "EPOCH": "2025-12-14T20:00:06.000192", "MEAN_MOTION": 15.85420431, "ECCENTRICITY": 0.00016608, "INCLINATION": 43.0004, "RA_OF_ASC_NODE": 109.2785, "ARG_OF_PERICENTER": 279.4624, "MEAN_ANOMALY": 42.4347, "EPHEMERIS_TYPE": 0, "CLASSIFICATION_TYPE": "U", "NORAD_CAT_ID": 66871, "ELEMENT_SET_NO": 999, "REV_AT_EPOCH": 177, "BSTAR": -0.0066994416, "MEAN_MOTION_DOT": -0.01470672, "MEAN_MOTION_DDOT": 0}, "tle": {"line1": "1 66871U 25281Z   25348.83340278 -.01470672  00000+0 -66994-2 0  9997", "line2": "2 66871  43.0004 109.2785 0001660 279.4624  42.4347 15.85420431  1772"}}, "geometry": {"type": "Point", "coordinates": [131.01489945138735, 23.372114155109628]}}, {"type": "Feature", "properties": {"norad_id": 66872, "name": "STARLINK-36082", "group": "last-30-days", "lat": 24.78555898120936, "lon": 133.08295116215734, "alt_km": 320.056001572736, "timestamp": "2025-12-15T19:00:44.078909+00:00", "meta": {"OBJECT_NAME": "STARLINK-36082", "OBJECT_ID": "2025-281AA", "EPOCH": "2025-12-14T20:00:06.000192", "MEAN_MOTION": 15.85410307, "ECCENTRICITY": 0.00015599, "INCLINATION": 43.0006, "RA_OF_ASC_NODE": 109.2723, "ARG_OF_PERICENTER": 278.7503, "MEAN_ANOMALY": 45.5869, "EPHEMERIS_TYPE": 0, "CLASSIFICATION_TYPE": "U", "NORAD_CAT_ID": 66872, "ELEMENT_SET_NO": 999, "REV_AT_EPOCH": 163, "BSTAR": -0.0067602066, "MEAN_MOTION_DOT": -0.01481747, "MEAN_MOTION_DDOT": 0}, "tle": {"line1": "1 66872U 25281AA  25348.83340278 -.01481747  00000+0 -67602-2 0  9990", "line2": "2 66872  43.0006 109.2723 0001559 278.7503  45.5869 15.85410307  1631"}}, "geometry": {"type": "Point", "coordinates": [133.08295116215734, 24.78555898120936]}}, {"type": "Feature", "properties": {"norad_id": 66873, "name": "STARLINK-36128", "group": "last-30-days", "lat": 29.459537757279637, "lon": 140.66992486840596, "alt_km": 319.94206988559563, "timestamp": "2025-12-15T19:00:44.078919+00:00", "meta": {"OBJECT_NAME": "STARLINK-36128", "OBJECT_ID": "2025-281AB", "EPOCH": "2025-12-14T20:00:06.000192", "MEAN_MOTION": 15.8529587, "ECCENTRICITY": 0.00016977, "INCLINATION": 43, "RA_OF_ASC_NODE": 109.2502, "ARG_OF_PERICENTER": 281.0123, "MEAN_ANOMALY": 52.0236, "EPHEMERIS_TYPE": 0, "CLASSIFICATION_TYPE": "U", "NORAD_CAT_ID": 66873, "ELEMENT_SET_NO": 999, "REV_AT_EPOCH": 177, "BSTAR": -0.0069157758, "MEAN_MOTION_DOT": -0.01504473, "MEAN_MOTION_DDOT": 0}, "tle": {"line1": "1 66873U 25281AB  25348.83340278 -.01504473  00000+0 -69158-2 0  9991", "line2": "2 66873  43.0000 109.2502 0001697 281.0123  52.0236 15.85295870  1771"}}, "geometry": {"type": "Point", "coordinates": [140.66992486840596, 29.459537757279637]}}, {"type": "Feature", "properties": {"norad_id": 66874, "name": "STARLINK-36129", "group": "last-30-days", "lat": 26.552326713073946, "lon": 135.80142413761234, "alt_km": 320.0525548135183, "timestamp": "2025-12-15T19:00:44.078929+00:00", "meta": {"OBJECT_NAME": "STARLINK-36129", "OBJECT_ID": "2025-281AC", "EPOCH": "2025-12-14T20:00:06.000192", "MEAN_MOTION": 15.85354309, "ECCENTRICITY": 0.00014942, "INCLINATION": 43.0002, "RA_OF_ASC_NODE": 109.2643, "ARG_OF_PERICENTER": 279.2524, "MEAN_ANOMALY": 48.3588, "EPHEMERIS_TYPE": 0, "CLASSIFICATION_TYPE": "U", "NORAD_CAT_ID": 66874, "ELEMENT_SET_NO": 999, "REV_AT_EPOCH": 177, "BSTAR": -0.0068541545, "MEAN_MOTION_DOT": -0.01496252, "MEAN_MOTION_DDOT": 0}, "tle": {"line1": "1 66874U 25281AC  25348.83340278 -.01496252  00000+0 -68542-2 0  9993", "line2": "2 66874  43.0002 109.2643 0001494 279.2524  48.3588 15.85354309  1770"}}, "geometry": {"type": "Point", "coordinates": [135.80142413761234, 26.552326713073946]}}, {"type": "Feature", "properties": {"norad_id": 66875, "name": "STARLINK-36053", "group": "last-30-days", "lat": 30.904791258116056, "lon": 143.32005441520414, "alt_km": 320.01118567668254, "timestamp": "2025-12-15T19:00:44.078939+00:00", "meta": {"OBJECT_NAME": "STARLINK-36053", "OBJECT_ID": "2025-281AD", "EPOCH": "2025-12-14T20:00:06.000192", "MEAN_MOTION": 15.85268107, "ECCENTRICITY": 0.00016099, "INCLINATION": 43.0002, "RA_OF_ASC_NODE": 109.2422, "ARG_OF_PERICENTER": 280.0832, "MEAN_ANOMALY": 55.8632, "EPHEMERIS_TYPE": 0, "CLASSIFICATION_TYPE": "U", "NORAD_CAT_ID": 66875, "ELEMENT_SET_NO": 999, "REV_AT_EPOCH": 177, "BSTAR": -0.0070629337, "MEAN_MOTION_DOT": -0.01530748, "MEAN_MOTION_DDOT": 0}, "tle": {"line1": "1 66875U 25281AD  25348.83340278 -.01530748  00000+0 -70629-2 0  9992", "line2": "2 66875  43.0002 109.2422 0001609 280.0832  55.8632 15.85268107  1779"}}, "geometry": {"type": "Point", "coordinates": [143.32005441520414, 30.904791258116056]}}, {"type": "Feature", "properties": {"norad_id": 66876, "name": "STARLINK-35702", "group": "last-30-days", "lat": 28.269070031825613, "lon": 138.60873349728595, "alt_km": 320.1257661697982, "timestamp": "2025-12-15T19:00:44.078951+00:00", "meta": {"OBJECT_NAME": "STARLINK-35702", "OBJECT_ID": "2025-281AE", "EPOCH": "2025-12-14T20:00:06.000192", "MEAN_MOTION": 15.85295144, "ECCENTRICITY": 0.00017487, "INCLINATION": 43.0004, "RA_OF_ASC_NODE": 109.2561, "ARG_OF_PERICENTER": 280.009, "MEAN_ANOMALY": 50.8594, "EPHEMERIS_TYPE": 0, "CLASSIFICATION_TYPE": "U", "NORAD_CAT_ID": 66876, "ELEMENT_SET_NO": 999, "REV_AT_EPOCH": 177, "BSTAR": -0.0069090035, "MEAN_MOTION_DOT": -0.01503165, "MEAN_MOTION_DDOT": 0}, "tle": {"line1": "1 66876U 25281AE  25348.83340278 -.01503165  00000+0 -69090-2 0  9996", "line2": "2 66876  43.0004 109.2561 0001748 280.0090  50.8594 15.85295144  1779"}}, "geometry": {"type": "Point", "coordinates": [138.60873349728595, 28.269070031825613]}}, {"type": "Feature", "properties": {"norad_id": 66877, "name": "ZQ-3 R/B", "group": "last-30-days", "lat": -9.722548836024767, "lon": -127.66328199320307, "alt_km": 223.41743272727308, "timestamp": "2025-12-15T19:00:44.078961+00:00", "meta": {"OBJECT_NAME": "ZQ-3 R/B", "OBJECT_ID": "2025-282A", "EPOCH": "2025-12-14T10:58:06.890016", "MEAN_MOTION": 14.63138678, "ECCENTRICITY": 0.07639091, "INCLINATION": 56.9514, "RA_OF_ASC_NODE": 51.0847, "ARG_OF_PERICENTER": 222.9276, "MEAN_ANOMALY": 130.9653, "EPHEMERIS_TYPE": 0, "CLASSIFICATION_TYPE": "U", "NORAD_CAT_ID": 66877, "ELEMENT_SET_NO": 999, "REV_AT_EPOCH": 164, "BSTAR": 0.00022007542, "MEAN_MOTION_DOT": 0.01125978, "MEAN_MOTION_DDOT": 7.543757e-06}, "tle": {"line1": "1 66877U 25282A   25348.45702419  .01125978  75438-5  22008-3 0  9997", "line2": "2 66877  56.9514  51.0847 0763909 222.9276 130.9653 14.63138678  1640"}}, "geometry": {"type": "Point", "coordinates": [-127.66328199320307, -9.722548836024767]}}]}